{
  "type": "FeatureCollection",
  "features": [
    {
      "type": "Feature",
      "properties": {
        "norad_id": 43823,
        "name": "GEO-KOMPSAT-2A",
        "group": "weather",
        "lat": -0.025877254164212608,
        "lon": -25.392568729162047,
        "alt_km": 35788.375821992886,
        "timestamp": "2025-12-02T08:59:32.362462+00:00",
        "meta_object_name": "GEO-KOMPSAT-2A",
        "meta_object_id": "2018-100A",
        "meta_epoch": "2025-12-01T23:15:38.582784",
        "meta_mean_motion": 1.00270755,
        "meta_eccentricity": 5.77e-05,
        "meta_inclination": 0.0611,
        "meta_ra_of_asc_node": 123.5335,
        "meta_arg_of_pericenter": 67.7491,
        "meta_mean_anomaly": 356.9772,
        "meta_ephemeris_type": 0,
        "meta_classification_type": "U",
        "meta_norad_cat_id": 43823,
        "meta_element_set_no": 999,
        "meta_rev_at_epoch": 2565,
        "meta_bstar": 0,
        "meta_mean_motion_dot": -3.22e-06,
        "meta_mean_motion_ddot": 0,
        "tle_line1": "1 43823U 18100A   25335.96919656 -.00000322  00000+0  00000+0 0  9995",
        "tle_line2": "2 43823   0.0611 123.5335 0000577  67.7491 356.9772  1.00270755 25659"
      },
      "geometry": {
        "type": "Point",
        "coordinates": [
          -25.392568729162047,
          -0.025877254164212608
        ]
      }
    },
    {
      "type": "Feature",
      "properties": {
        "norad_id": 44387,
        "name": "METEOR-M2 2",
        "group": "weather",
        "lat": 1.1608736225024008,
        "lon": 136.1591034209063,
        "alt_km": 813.0822916455963,
        "timestamp": "2025-12-02T08:59:32.362473+00:00",
        "meta_object_name": "METEOR-M2 2",
        "meta_object_id": "2019-038A",
        "meta_epoch": "2025-12-02T03:05:52.518912",
        "meta_mean_motion": 14.24284016,
        "meta_eccentricity": 8.15e-05,
        "meta_inclination": 98.8962,
        "meta_ra_of_asc_node": 315.7287,
        "meta_arg_of_pericenter": 170.9582,
        "meta_mean_anomaly": 189.1611,
        "meta_ephemeris_type": 0,
        "meta_classification_type": "U",
        "meta_norad_cat_id": 44387,
        "meta_element_set_no": 999,
        "meta_rev_at_epoch": 33324,
        "meta_bstar": 0.00010896,
        "meta_mean_motion_dot": 2.06e-06,
        "meta_mean_motion_ddot": 0,
        "tle_line1": "1 44387U 19038A   25336.12908008  .00000206  00000+0  10896-3 0  9998",
        "tle_line2": "2 44387  98.8962 315.7287 0000815 170.9582 189.1611 14.24284016333243"
      },
      "geometry": {
        "type": "Point",
        "coordinates": [
          136.1591034209063,
          1.1608736225024008
        ]
      }
    },
    {
      "type": "Feature",
      "properties": {
        "norad_id": 47719,
        "name": "ARKTIKA-M 1",
        "group": "weather",
        "lat": 62.6390020993235,
        "lon": -172.25669600889955,
        "alt_km": 38513.279551664906,
        "timestamp": "2025-12-02T08:59:32.362487+00:00",
        "meta_object_name": "ARKTIKA-M 1",
        "meta_object_id": "2021-016A",
        "meta_epoch": "2025-12-01T02:41:41.634816",
        "meta_mean_motion": 2.00613156,
        "meta_eccentricity": 0.7197471,
        "meta_inclination": 63.1756,
        "meta_ra_of_asc_node": 85.6045,
        "meta_arg_of_pericenter": 269.084,
        "meta_mean_anomaly": 15.7076,
        "meta_ephemeris_type": 0,
        "meta_classification_type": "U",
        "meta_norad_cat_id": 47719,
        "meta_element_set_no": 999,
        "meta_rev_at_epoch": 3481,
        "meta_bstar": 0,
        "meta_mean_motion_dot": -1.2e-07,
        "meta_mean_motion_ddot": 0,
        "tle_line1": "1 47719U 21016A   25335.11228744 -.00000012  00000+0  00000+0 0  9997",
        "tle_line2": "2 47719  63.1756  85.6045 7197471 269.0840  15.7076  2.00613156 34817"
      },
      "geometry": {
        "type": "Point",
        "coordinates": [
          -172.25669600889955,
          62.6390020993235
        ]
      }
    },
    {
      "type": "Feature",
      "properties": {
        "norad_id": 49008,
        "name": "FENGYUN 3E",
        "group": "weather",
        "lat": -56.59915564649074,
        "lon": -9.478033901424132,
        "alt_km": 832.2800305376986,
        "timestamp": "2025-12-02T08:59:32.362500+00:00",
        "meta_object_name": "FENGYUN 3E",
        "meta_object_id": "2021-062A",
        "meta_epoch": "2025-12-01T21:25:28.625952",
        "meta_mean_motion": 14.19877598,
        "meta_eccentricity": 8.25e-05,
        "meta_inclination": 98.7476,
        "meta_ra_of_asc_node": 336.5425,
        "meta_arg_of_pericenter": 332.6664,
        "meta_mean_anomaly": 27.4469,
        "meta_ephemeris_type": 0,
        "meta_classification_type": "U",
        "meta_norad_cat_id": 49008,
        "meta_element_set_no": 999,
        "meta_rev_at_epoch": 22858,
        "meta_bstar": 4.1333e-05,
        "meta_mean_motion_dot": 4.4e-07,
        "meta_mean_motion_ddot": 0,
        "tle_line1": "1 49008U 21062A   25335.89269243  .00000044  00000+0  41333-4 0  9998",
        "tle_line2": "2 49008  98.7476 336.5425 0000825 332.6664  27.4469 14.19877598228583"
      },
      "geometry": {
        "type": "Point",
        "coordinates": [
          -9.478033901424132,
          -56.59915564649074
        ]
      }
    },
    {
      "type": "Feature",
      "properties": {
        "norad_id": 51850,
        "name": "GOES 18",
        "group": "weather",
        "lat": -0.0021377137216582014,
        "lon": 69.34308105847366,
        "alt_km": 35788.72182531256,
        "timestamp": "2025-12-02T08:59:32.362513+00:00",
        "meta_object_name": "GOES 18",
        "meta_object_id": "2022-021A",
        "meta_epoch": "2025-12-02T02:51:33.280416",
        "meta_mean_motion": 1.00270121,
        "meta_eccentricity": 6.65e-05,
        "meta_inclination": 0.0107,
        "meta_ra_of_asc_node": 75.353,
        "meta_arg_of_pericenter": 212.7021,
        "meta_mean_anomaly": 49.0652,
        "meta_ephemeris_type": 0,
        "meta_classification_type": "U",
        "meta_norad_cat_id": 51850,
        "meta_element_set_no": 999,
        "meta_rev_at_epoch": 461,
        "meta_bstar": 0,
        "meta_mean_motion_dot": 1.18e-06,
        "meta_mean_motion_ddot": 0,
        "tle_line1": "1 51850U 22021A   25336.11913519  .00000118  00000+0  00000+0 0  9993",
        "tle_line2": "2 51850   0.0107  75.3530 0000665 212.7021  49.0652  1.00270121  4615"
      },
      "geometry": {
        "type": "Point",
        "coordinates": [
          69.34308105847366,
          -0.0021377137216582014
        ]
      }
    },
    {
      "type": "Feature",
      "properties": {
        "norad_id": 54234,
        "name": "NOAA 21 (JPSS-2)",
        "group": "weather",
        "lat": -37.46342171401926,
        "lon": -80.4133283561057,
        "alt_km": 833.4732197332669,
        "timestamp": "2025-12-02T08:59:32.362524+00:00",
        "meta_object_name": "NOAA 21 (JPSS-2)",
        "meta_object_id": "2022-150A",
        "meta_epoch": "2025-12-02T02:24:15.168384",
        "meta_mean_motion": 14.19519242,
        "meta_eccentricity": 0.0002563,
        "meta_inclination": 98.7446,
        "meta_ra_of_asc_node": 272.542,
        "meta_arg_of_pericenter": 57.8485,
        "meta_mean_anomaly": 302.294,
        "meta_ephemeris_type": 0,
        "meta_classification_type": "U",
        "meta_norad_cat_id": 54234,
        "meta_element_set_no": 999,
        "meta_rev_at_epoch": 15858,
        "meta_bstar": 7.2477e-05,
        "meta_mean_motion_dot": 1.09e-06,
        "meta_mean_motion_ddot": 0,
        "tle_line1": "1 54234U 22150A   25336.10017556  .00000109  00000+0  72477-4 0  9992",
        "tle_line2": "2 54234  98.7446 272.5420 0002563  57.8485 302.2940 14.19519242158588"
      },
      "geometry": {
        "type": "Point",
        "coordinates": [
          -80.4133283561057,
          -37.46342171401926
        ]
      }
    },
    {
      "type": "Feature",
      "properties": {
        "norad_id": 54743,
        "name": "METEOSAT-12 (MTG-I1)",
        "group": "weather",
        "lat": 0.024072448797145134,
        "lon": -153.9696053180958,
        "alt_km": 35780.677909755665,
        "timestamp": "2025-12-02T08:59:32.362536+00:00",
        "meta_object_name": "METEOSAT-12 (MTG-I1)",
        "meta_object_id": "2022-170C",
        "meta_epoch": "2025-12-02T03:30:34.806816",
        "meta_mean_motion": 1.00273493,
        "meta_eccentricity": 0.0001451,
        "meta_inclination": 0.7153,
        "meta_ra_of_asc_node": 29.7901,
        "meta_arg_of_pericenter": 213.1409,
        "meta_mean_anomaly": 240.6702,
        "meta_ephemeris_type": 0,
        "meta_classification_type": "U",
        "meta_norad_cat_id": 54743,
        "meta_element_set_no": 999,
        "meta_rev_at_epoch": 1100,
        "meta_bstar": 0,
        "meta_mean_motion_dot": 1.4e-07,
        "meta_mean_motion_ddot": 0,
        "tle_line1": "1 54743U 22170C   25336.14623619  .00000014  00000+0  00000+0 0  9999",
        "tle_line2": "2 54743   0.7153  29.7901 0001451 213.1409 240.6702  1.00273493 11002"
      },
      "geometry": {
        "type": "Point",
        "coordinates": [
          -153.9696053180958,
          0.024072448797145134
        ]
      }
    }
  ]
}